STARLINK-30329          
1 57635U 23122D   26068.42338009  .00001376  00000+0  60951-4 0  9998
2 57635  43.0009  94.2279 0001445 260.6424  99.4264 15.26746530142162
FLOCK 4G-27             
1 62641U 25009AJ  26068.75406453  .00012587  00000+0  47455-3 0  9991
2 62641  97.3976 150.8631 0000756 322.4974  37.6212 15.27199247 63710
