[{"OBJECT_NAME":"STARLINK-30329","OBJECT_ID":"2023-122D","EPOCH":"2026-03-09T10:09:40.039776","MEAN_MOTION":15.2674653,"ECCENTRICITY":0.00014457,"INCLINATION":43.0009,"RA_OF_ASC_NODE":94.2279,"ARG_OF_PERICENTER":260.6424,"MEAN_ANOMALY":99.4264,"EPHEMERIS_TYPE":0,"CLASSIFICATION_TYPE":"U","NORAD_CAT_ID":57635,"ELEMENT_SET_NO":999,"REV_AT_EPOCH":14216,"BSTAR":6.0950903e-5,"MEAN_MOTION_DOT":1.376e-5,"MEAN_MOTION_DDOT":0},{"OBJECT_NAME":"FLOCK 4G-27","OBJECT_ID":"2025-009AJ","EPOCH":"2026-03-09T18:05:51.175392","MEAN_MOTION":15.27199247,"ECCENTRICITY":7.564e-5,"INCLINATION":97.3976,"RA_OF_ASC_NODE":150.8631,"ARG_OF_PERICENTER":322.4974,"MEAN_ANOMALY":37.6212,"EPHEMERIS_TYPE":0,"CLASSIFICATION_TYPE":"U","NORAD_CAT_ID":62641,"ELEMENT_SET_NO":999,"REV_AT_EPOCH":6371,"BSTAR":0.00047455305,"MEAN_MOTION_DOT":0.00012587,"MEAN_MOTION_DDOT":0}]
